[{"OBJECT_NAME":"STARLINK-6231","OBJECT_ID":"2023-078N","EPOCH":"2026-03-09T21:23:57.873984","MEAN_MOTION":14.98330383,"ECCENTRICITY":0.00028313,"INCLINATION":70.0003,"RA_OF_ASC_NODE":323.953,"ARG_OF_PERICENTER":273.9274,"MEAN_ANOMALY":86.1561,"EPHEMERIS_TYPE":0,"CLASSIFICATION_TYPE":"U","NORAD_CAT_ID":56779,"ELEMENT_SET_NO":999,"REV_AT_EPOCH":15319,"BSTAR":9.082071e-6,"MEAN_MOTION_DOT":1.5e-7,"MEAN_MOTION_DDOT":0},{"OBJECT_NAME":"LACUNASAT-4D","OBJECT_ID":"2025-276DW","EPOCH":"2026-03-09T17:30:33.252192","MEAN_MOTION":14.98548204,"ECCENTRICITY":0.00108499,"INCLINATION":97.5312,"RA_OF_ASC_NODE":142.8344,"ARG_OF_PERICENTER":115.0636,"MEAN_ANOMALY":245.1714,"EPHEMERIS_TYPE":0,"CLASSIFICATION_TYPE":"U","NORAD_CAT_ID":66781,"ELEMENT_SET_NO":999,"REV_AT_EPOCH":772,"BSTAR":0.00086123106,"MEAN_MOTION_DOT":0.00010278,"MEAN_MOTION_DDOT":0}]
